{
  "norad_id": 55686,
  "name": "ZHONGXING-26",
  "history": [
    {
      "epoch": "2026-03-27T10:17:16.720800",
      "apogee_km": 35803.58498209701,
      "perigee_km": 35770.67920609598,
      "latitude_deg": -0.032861445390148104,
      "longitude_deg": 53.75191200012341,
      "semi_major_axis_km": 42165.2690940965,
      "eccentricity": 0.0003902,
      "inclination_deg": 0.0682,
      "raan_deg": 65.8691,
      "arg_perigee_deg": 338.9574,
      "mean_anomaly_deg": 59.4502,
      "mean_motion_rev_day": 1.00269869
    }
  ]
}